ID,EmailId,UUID,LOCALE,VENDOR_ID,ACCOUNT,STORE,STATUS,NAME,ADDR1,ADDR2,CITY,STATE_PROV,POSTAL,PHONE,SPECIALTY,DEALER_TYPE,COUNTRY,KEY_ACCOUNT,SALES_REP1,SALES_REP2,CREDIT_REP,NB_MINIMUS_FLAG,ROBIS_FLAG,COMPANY,MON_OPEN,MON_CLOSE,TUE_OPEN,TUE_CLOSE,WED_OPEN,WED_CLOSE,THU_OPEN,THU_CLOSE,FRI_OPEN,FRI_CLOSE,SAT_OPEN,SAT_CLOSE,SUN_OPEN,SUN_CLOSE,PRODUCT_LINE_SHOE,PRODUCT_LINE_APPAREL,CATEGORY_RUNNING,CATEGORY_WALKING,CATEGORY_TRAINING,CATEGORY_TENNIS,SUBCATEGORY_KIDS,DUNHAM,ARAVON,COBB_HILL,CATEGORY_FOOTBALL,CATEGORY_CRICKET,CATEGORY_LIFESTYLE,PF_FLYERS,InventoryOrganizationCode,ParentOrganizationCode,PrimaryEnterpriseKey,DefaultDistributionRuleId,OwnerKey
2955,abc123@gmail.com,9699601_403,en_US_EST,,9699903,1,active,NEW BALANCE NEW YORK,150 5TH AVE,,NEW YORK,NY,10011,212-727-2520,,Corporate Store,In,,,,,,,10,10:00am,9:00pm,10:00am,9:00pm,10:00am,9:00pm,10:00am,9:00pm,10:00am,9:00pm,10:00am,9:00pm,11:00am,7:00pm,,,,,,,,,,,,,,,NB_US,NB_STORES,NB_STORES,NB_DG,NB_US
2956,Boston-4004@newbalance.com,9699601_404,en_US_EST,,9699904,1,active,NEW BALANCE BOSTON,583 BOYLSTON STREET,,BOSTON,MA,2116,617-266-1583,,Corporate Store,In,,,,,,,10,10:00am,9:00pm,10:00am,9:00pm,10:00am,9:00pm,10:00am,9:00pm,10:00am,9:00pm,10:00am,9:00pm,11:00am,7:00pm,,,,,,,,,,,,,,,NB_US,NB_STORES,NB_STORES,NB_DG,NB_US
3716,Philadelphia-4006@newbalance.com,9699601_406,en_US_EST,,9699601,4005,active,NEW BALANCE PHILADELPHIA,1615 Walnut Street,,Philadelphia,PA,19103,267-330-0490,,Corporate Store,US,,,,,,,10,10:00am,9:00pm,10:00am,9:00pm,10:00am,9:00pm,10:00am,9:00pm,10:00am,9:00pm,10:00am,9:00pm,11:00am,7:00pm,,,,,,,,,,,,,,,NB_US,NB_STORES,NB_STORES,NB_DG,NB_US
19185,Burlington-4501@newbalance.com,9699601_451,en_US_EST,,9699601451,9699601451,active,New Balance Life Burlington,75 Middlesex Turnpike,Suit # 1062,Burlington,MA,1803,781-221-1606,,New Balance Store,US,,,,,,,10,10:00 AM,9:00 PM,10:00 AM,9:00 PM,10:00 AM,9:00 PM,10:00 AM,9:00 PM,10:00 AM,9:00 PM,10:00 AM,9:00 PM,11:00 AM,6:00 PM,Y,Y,Y,Y,Y,Y,Y,,,,,,Y,,NB_US,NB_STORES,NB_STORES,NB_DG,NB_US
19245,NYC-4003@newbalance.com,9699601_407,en_US_EST,,9699601,407,active,New Balance New York Il,1172 3rd Ave,,New York,New York,10065,212-452-3429,,Inline,US,,,,,,,10,10:00 AM,9:00 PM,10:00 AM,9:00 PM,10:00 AM,9:00 PM,10:00 AM,9:00 PM,10:00 AM,9:00 PM,10:00 AM,9:00 PM,11:00 AM,7:00 PM,,,,,,,,,,,,,,,NB_US,NB_STORES,NB_STORES,NB_DG,NB_US
19270,NBHQ-4008@newbalance.com,9699601_408,en_US_EST,,9699601,408,active,New Balance Global Flagship Boston Landing,140 Guest St,,Boston,MA,2135,857-316-2130,,,US,,,,,,,10,10:00 AM,7:00 PM,10:00 AM,7:00 PM,10:00 AM,7:00 PM,10:00 AM,7:00 PM,10:00 AM,7:00 PM,10:00 AM,7:00 PM,11:00 AM,6:00 PM,,,,,,,,,,,,,,,NB_US,NB_STORES,NB_STORES,NB_DG,NB_US
766,NBL.0310702@gmail.com,0310702_001,en_US_CST,,310702,1,active,NEW BALANCE DALLAS,4017 NORTHWEST PARKWAY,,DALLAS,TX,75225,(214) 696-4313,,New Balance Store,US,Procare,,,,,,10,10:00am,7:00pm,10:00am,7:00pm,10:00am,7:00pm,10:00am,7:00pm,10:00am,7:00pm,10:00am,6:00pm,,,Y,Y,Y,Y,Y,Y,Y,,,,,,,,NB_US,NB_STORES,NB_STORES,NB_DG,NB_US
767,NBL.0310704@gmail.com,0310704_001,en_US_CST,,310704,1,active,NEW BALANCE ARLINGTON,3751 MATLOCK ROAD,SUITE 101,ARLINGTON,TX,76015,(817) 466-3882,,New Balance Store,US,Procare,,,,,,10,10:00am,7:00pm,10:00am,7:00pm,10:00am,7:00pm,10:00am,7:00pm,10:00am,7:00pm,10:00am,6:00pm,,,Y,Y,Y,Y,Y,Y,Y,,,,,,,,NB_US,NB_STORES,NB_STORES,NB_DG,NB_US
768,NBL.0310706@gmail.com,0310706_001,en_US_CST,,310706,1,active,NEW BALANCE FRISCO,8300 GAYLORD PARKWAY,SUITE 4,FRISCO,TX,75034,(214) 618-4442,,New Balance Store,US,Procare,,,,,,10,10:00am,7:00pm,10:00am,7:00pm,10:00am,7:00pm,10:00am,7:00pm,10:00am,7:00pm,10:00am,6:00pm,,,Y,Y,Y,Y,Y,Y,Y,,,,,,,,NB_US,NB_STORES,NB_STORES,NB_DG,NB_US
769,NBL.0310708@gmail.com,0310708_001,en_US_CST,,310708,1,active,NEW BALANCE SOUTHLAKE,2704 EAST SOUTHLAKE BOULEVARD,SUITE 100,SOUTHLAKE,TX,76092,(817) 749-0177,,New Balance Store,US,Procare,,,,,,10,10:00am,7:00pm,10:00am,7:00pm,10:00am,7:00pm,10:00am,7:00pm,10:00am,7:00pm,10:00am,6:00pm,,,Y,Y,Y,Y,Y,Y,Y,,,,,,,,NB_US,NB_STORES,NB_STORES,NB_DG,NB_US
770,NBL.0310710@gmail.com,0310710_001,en_US_CST,,310710,1,active,NEW BALANCE ROCKWALL,951 EAST INTERSTATE 30,SUITE 115,ROCKWALL,TX,75087,(214) 771-0528,,New Balance Store,US,Procare,,,,,,10,10:00am,7:00pm,10:00am,7:00pm,10:00am,7:00pm,10:00am,7:00pm,10:00am,7:00pm,10:00am,6:00pm,,,Y,Y,Y,Y,Y,Y,Y,,,,,,,,NB_US,NB_STORES,NB_STORES,NB_DG,NB_US
771,NBL.0310714@gmail.com,0310714_001,en_US_CST,,310714,1,active,NEW BALANCE LUBBOCK,5027 MILWAUKEE AVENUE,SUITE 300,LUBBOCK,TX,79407,(806) 791-0082,,New Balance Store,US,Procare,,,,,,10,10:00am,7:00pm,10:00am,7:00pm,10:00am,7:00pm,10:00am,7:00pm,10:00am,7:00pm,10:00am,6:00pm,,,Y,Y,Y,Y,Y,Y,Y,,,,,,,,NB_US,NB_STORES,NB_STORES,NB_DG,NB_US
772,NBL.0310716@gmail.com,0310716_001,en_US_CST,,310716,1,active,NEW BALANCE TYLER,7278 OLD JACKSONVILLE HIGHWAY,SWAN PLAZA SUITE 400,TYLER,TX,75703,903-581-2605,,New Balance Store,US,Procare,,,,,,10,10:00am,7:00pm,10:00am,7:00pm,10:00am,7:00pm,10:00am,7:00pm,10:00am,7:00pm,10:00am,6:00pm,,,Y,Y,Y,Y,Y,Y,Y,,,,,,,,NB_US,NB_STORES,NB_STORES,NB_DG,NB_US
773,NBL.0310718@gmail.com,0310718_001,en_US_CST,,310718,1,active,NEW BALANCE MIDLAND,2900 WEST LOOP 250 NORTH,SUITE 115,MIDLAND,TX,79705,(432) 689-3399,,New Balance Store,US,Procare,,,,,,10,10:00am,7:00pm,10:00am,7:00pm,10:00am,7:00pm,10:00am,7:00pm,10:00am,7:00pm,10:00am,6:00pm,,,Y,Y,Y,Y,Y,Y,Y,,,,,,,,NB_US,NB_STORES,NB_STORES,NB_DG,NB_US
912,NBL.0380219@gmail.com,0380219_001,en_US_CST,,380219,1,active,NEW BALANCE BIRMINGHAM,4618 HIGHWAY 280,SUITE 130,BIRMINGHAM,AL,35242,(205) 991-4446,,New Balance Store,US,Procare,,,,,,10,10:00am,8:00pm,10:00am,8:00pm,10:00am,8:00pm,10:00am,8:00pm,10:00am,8:00pm,10:00am,8:00pm,12:00pm,6:00pm,Y,Y,Y,Y,Y,Y,Y,,,,,,,,NB_US,NB_STORES,NB_STORES,NB_DG,NB_US
1393,NBL.0550605@gmail.com,0550605_001,en_US_CST,,550605,1,active,NEW BALANCE FT WORTH,4601 WEST FREEWAY,SUITE B 304,FORT WORTH,TX,76107,(817) 737-8454,,New Balance Store,US,Procare,,,,,,10,10:00am,7:00pm,10:00am,7:00pm,10:00am,7:00pm,10:00am,7:00pm,10:00am,7:00pm,10:00am,6:00pm,,,Y,Y,Y,Y,Y,Y,Y,,,,,,,,NB_US,NB_STORES,NB_STORES,NB_DG,NB_US
1867,NBL.0742299@gmail.com,0742299_001,en_US_CST,,742299,1,active,NEW BALANCE MEMPHIS I,1140 NORTH GERMANTOWN PARKWAY,SUITE 114,CORDOVA,TN,38016,(901) 624-7663,,New Balance Store,US,Procare,,,,,,10,10:00am,8:00pm,10:00am,8:00pm,10:00am,8:00pm,10:00am,8:00pm,10:00am,8:00pm,10:00am,6:00pm,1:00pm,6:00pm,Y,Y,Y,Y,Y,Y,Y,,,,,,,,NB_US,NB_STORES,NB_STORES,NB_DG,NB_US
876,NBL.0360823@gmail.com,0360823_001,en_US_CST,,360823,1,active,NEW BALANCE GREEN HILLS,2171 GREEN HILLS VILLAGE DRIVE,,NASHVILLE,TN,37215,(615) 292-3760,,New Balance Store,US,Procare,,,,,,10,10:00am,8:00pm,10:00am,8:00pm,10:00am,8:00pm,10:00am,8:00pm,10:00am,8:00pm,10:00am,7:00pm,12:00pm,6:00pm,Y,Y,Y,Y,Y,Y,Y,,,,,,,,NB_US,NB_STORES,NB_STORES,NB_DG,NB_US
1975,NBL.0810711@gmail.com,0810711_001,en_US_CST,,810711,1,active,NEW BALANCE COOL SPRINGS,420 COOL SPRINGS BOULEVARD,SUITE 130,FRANKLIN,TN,37067,(615) 503-9654,,New Balance Store,US,Procare,,,,,,10,10:00am,8:00pm,10:00am,8:00pm,10:00am,8:00pm,10:00am,8:00pm,10:00am,8:00pm,10:00am,7:00pm,12:00pm,6:00pm,Y,Y,Y,Y,Y,Y,Y,,,,,,,,NB_US,NB_STORES,NB_STORES,NB_DG,NB_US
1891,NBL.0771220@gmail.com,0771220_001,en_US_EST,,771220,1,active,NEW BALANCE ATLANTA AT EAST COBB,4250 ROSWELL ROAD,BUILDING 500 SUITE 520,MARIETTA,GA,30062,(678) 560-9259,,New Balance Store,US,Procare,,,,,,10,10:00am,8:00pm,10:00am,8:00pm,10:00am,8:00pm,10:00am,8:00pm,10:00am,8:00pm,10:00am,8:00pm,12:00pm,6:00pm,Y,Y,Y,Y,Y,Y,Y,,,,,,,,NB_US,NB_STORES,NB_STORES,NB_DG,NB_US
916,NBL.0380418@gmail.com,0380418_001,en_US_EST,,380418,1,active,NEW BALANCE ATLANTA AT GWINNETT,5161 PEACHTREE PARKWAY SUITE 615,THE FORUM ON PEACHTREE PARKWAY,NORCROSS,GA,30092,(678) 421-9008,,New Balance Store,US,,,,,,,10,10:00 AM,8:00 PM,10:00 AM,8:00 PM,10:00 AM,8:00 PM,10:00 AM,8:00 PM,10:00 AM,8:00 PM,10:00 AM,8:00 PM,12:00 PM,6:00 PM,Y,Y,Y,Y,Y,Y,Y,,,,,,,,NB_US,NB_STORES,NB_STORES,NB_DG,NB_US
911,NBL.0380217@gmail.com,0380217_001,en_US_EST,,380217,1,active,NEW BALANCE ATLANTA AT MALL GEORGIA,3260 BUFORD DRIVE,SUITE 70,BUFORD,GA,30519,(678) 546-9100,,New Balance Store,US,Procare,,,,,,10,10:00am,8:00pm,10:00am,8:00pm,10:00am,8:00pm,10:00am,8:00pm,10:00am,8:00pm,10:00am,8:00pm,12:00pm,6:00pm,Y,Y,Y,Y,Y,Y,Y,,,,,,,,NB_US,NB_STORES,NB_STORES,NB_DG,NB_US
1918,NBL.0790314@gmail.com,0790314_001,en_US_EST,,790314,1,active,NEW BALANCE ATLANTA AT NORTHPOINT,7300 NORTH POINT PARKWAY,SUITE 119,ALPHARETTA,GA,30022,(678) 867-0035,,New Balance Store,US,,,,,,,10,10:00 AM,8:00 PM,10:00 AM,8:00 PM,10:00 AM,8:00 PM,10:00 AM,8:00 PM,10:00 AM,8:00 PM,10:00 AM,8:00 PM,12:00 AM,6:00 PM,Y,Y,Y,Y,Y,Y,Y,,,,,,,,NB_US,NB_STORES,NB_STORES,NB_DG,NB_US
1622,NBL.0615325@gmail.com,0615325_001,en_US_EST,,615325,1,active,NEW BALANCE CHATTANOOGA,1820 GUNBARREL ROAD,SUITE 300,CHATTANOOGA,TN,37421,(423) 894-5400,,New Balance Store,US,Procare,,,,,,10,10:00am,7:00pm,10:00am,7:00pm,10:00am,7:00pm,10:00am,7:00pm,10:00am,8:00pm,10:00am,8:00pm,12:30pm,5:00pm,Y,Y,Y,Y,Y,Y,Y,,,,,,,,NB_US,NB_STORES,NB_STORES,NB_DG,NB_US
19247,NBL.0790607@gmail.com,0790607_001,en_US_EST,,790607,1,active,New Balance Greenville,1140 WOODRUFF ROAD #501,,Greenville,SC,29607,864-288-0044,,NBL,US,,,,,,,10,10:00 AM,8:00 PM,10:00 AM,8:00 PM,10:00 AM,8:00 PM,10:00 AM,8:00 PM,10:00 AM,8:00 PM,10:00 AM,8:00 PM,12:00 PM,6:00 PM,Y,Y,Y,Y,Y,Y,Y,,,,,,Y,,NB_US,NB_STORES,NB_STORES,NB_DG,NB_US
1807,NBL.0691010@gmail.com,0691010_001,en_US_EST,,691010,1,active,NEW BALANCE LONG ISLAND,127 OLD COUNTRY ROAD,COUNTRY GLEN CENTER,CARLE PLACE,NY,11514,516-873-7020,,New Balance Store,US,Procare,,,,,,10,10:00am,8:00pm,10:00am,8:00pm,10:00am,8:00pm,10:00am,9:00pm,10:00am,9:00pm,10:00am,9:00pm,10:00am,6:00pm,Y,Y,Y,Y,Y,Y,Y,,,,,,,,NB_US,NB_STORES,NB_STORES,NB_DG,NB_US
3654,NBL.0691035@gmail.com,0691035_001,en_US_EST,,691035,1,active,NEW BALANCE SUFFOLK,RUN SUFFOLK INC.,117 ALEXANDER AVENUE,LAKE GROVE,NY,11755,(631)257-5124,,New Balance Store,US,Procare,,,,,,10,10:00am,8:00pm,10:00am,8:00pm,10:00am,8:00pm,10:00am,9:00pm,10:00am,9:00pm,10:00am,9:00pm,10:00am,6:00pm,Y,Y,Y,Y,Y,Y,Y,,,,,,,,NB_US,NB_STORES,NB_STORES,NB_DG,NB_US
33,,0008711_001,,,8711,1,active,NEW BALANCE PORTLAND,7385 SOUTHWEST BRIDGEPORT ROAD,,PORTLAND,OR,97224,(503) 808-9400,,New Balance Store,US,Procare,,,,,,10,10:00am,9:00pm,10:00am,9:00pm,10:00am,9:00pm,10:00am,9:00pm,10:00am,9:00pm,10:00am,9:00pm,11:00am,7:00pm,Y,Y,Y,Y,Y,Y,Y,,,,,,,,NB_US,NB_STORES,NB_STORES,NB_DG,NB_US
76,,0030117_001,,,30117,1,active,NEW BALANCE SEATTLE ALDERWOOD MALL,3000 184TH STREET SOUTHWEST,SUITE 200,LYNNWOOD,WA,98037,(425) 774-1014,,New Balance Store,US,Procare,,,,,,10,10:00am,9:00pm,10:00am,9:00pm,10:00am,9:00pm,10:00am,9:00pm,10:00am,9:00pm,10:00am,9:00pm,11:00am,7:00pm,Y,Y,Y,Y,Y,Y,Y,,,,,,,,NB_US,NB_STORES,NB_STORES,NB_DG,NB_US
77,,0030400_001,,,30400,1,active,NEW BALANCE BELLEVUE,823 BELLEVUE WAY NORTHEAST,SUITE 100,BELLEVUE,WA,98004,(425) 454-8542,,New Balance Store,US,,,,,,,10,10:00am,8:00pm,10:00am,8:00pm,10:00am,8:00pm,10:00am,8:00pm,10:00am,8:00pm,10:00am,8:00pm,11:00am,6:00pm,Y,Y,Y,Y,Y,Y,Y,,,,,,,,NB_US,NB_STORES,NB_STORES,NB_DG,NB_US
94,,0100875_001,,,100875,1,active,NEW BALANCE DAYTON,304 EAST STROOP ROAD,,DAYTON,OH,45429,(937) 293-1991,,New Balance Store,US,,,,,,,10,10:00am,9:00pm,10:00am,9:00pm,10:00am,9:00pm,10:00am,9:00pm,10:00am,9:00pm,10:00am,9:00pm,12:00pm,5:00pm,Y,Y,Y,Y,Y,Y,Y,,,,,,,,NB_US,NB_STORES,NB_STORES,NB_DG,NB_US
364,,0203500_001,,,203500,1,active,NEW BALANCE SALT LAKE CITY,445 EAST SOUTH TEMPLE,,SALT LAKE CITY,UT,84111,(801) 485-6208,,New Balance Store,US,,,,,,,10,10:00am,7:00pm,10:00am,7:00pm,10:00am,7:00pm,10:00am,7:00pm,10:00am,7:00pm,10:00am,6:00pm,,,Y,Y,Y,Y,Y,Y,Y,,,,,,,,NB_US,NB_STORES,NB_STORES,NB_DG,NB_US
365,,0203511_001,,,203511,1,active,NEW BALANCE UNION PARK,7444 SOUTH UNION PARK AVENUE,,MIDVALE,UT,84047,(801) 566-3800,,New Balance Store,US,,,,,,,10,10:00am,7:30pm,10:00am,7:30pm,10:00am,7:30pm,10:00am,7:30pm,10:00am,7:30pm,10:00am,6:00pm,,,Y,Y,Y,Y,Y,Y,Y,,,,,,,,NB_US,NB_STORES,NB_STORES,NB_DG,NB_US
373,,0210702_001,,,210702,1,active,NEW BALANCE ALBUQUERQUE JUAN TABO,1331 JUAN TABO BOULEVARD NORTHEAST,SUITE 1B,ALBUQUERQUE,NM,87112,(505) 299-9471,,New Balance Store,US,Procare,,,,,,10,10:00am,5:30pm,10:00am,5:30pm,10:00am,5:30pm,10:00am,5:30pm,10:00am,5:30pm,10:00am,5:30pm,12:00pm,5:00pm,Y,Y,Y,Y,Y,Y,Y,,,,,,,,NB_US,NB_STORES,NB_STORES,NB_DG,NB_US
374,,0210704_001,,,210704,1,active,NEW BALANCE ALBUQUERQUE II,3731 ELLISON ROAD NORTHWEST,,ALBUQUERQUE,NM,87114,(505) 899-0060,,New Balance Store,US,,,,,,,10,10:00am,5:30pm,10:00am,5:30pm,10:00am,5:30pm,10:00am,5:30pm,10:00am,5:30pm,10:00am,5:30pm,12:00pm,5:00pm,Y,Y,Y,Y,Y,Y,Y,,,,,,,,NB_US,NB_STORES,NB_STORES,NB_DG,NB_US
632,,0261205_001,,,261205,1,active,NEW BALANCE MILWAUKEE I,17155D WEST BLUEMOUND ROAD,,BROOKFIELD,WI,53005,(262) 432-1400,,New Balance Store,US,Procare,,,,,,10,9:30am,9:00pm,9:30am,9:00pm,9:30am,9:00pm,9:30am,9:00pm,9:30am,9:00pm,9:30am,5:30pm,11:00am,5:00pm,Y,Y,Y,Y,Y,Y,Y,,,,,,,,NB_US,NB_STORES,NB_STORES,NB_DG,NB_US
633,,0261215_001,,,261215,1,active,NEW BALANCE MILWAUKEE WEST LAYTON,7411 WEST LAYTON AVENUE,LAYTON PLAZA,MILWAUKEE,WI,53220,(414) 431-6300,,New Balance Store,US,Procare,,,,,,10,9:30am,9:00pm,9:30am,9:00pm,9:30am,9:00pm,9:30am,9:00pm,9:30am,9:00pm,9:30am,5:30pm,11:00am,5:00pm,Y,Y,Y,Y,Y,Y,Y,,,,,,,,NB_US,NB_STORES,NB_STORES,NB_DG,NB_US
634,,0261822_001,,,261822,1,active,NEW BALANCE MADISON,735 Hilldale Way,,MADISON,WI,53705,(608) 238-3509,,New Balance Store,US,,,,,,,10,,,,,,,,,,,,,,,Y,Y,Y,Y,Y,Y,Y,,,,,,,,NB_US,NB_STORES,NB_STORES,NB_DG,NB_US
644,,0270213_001,,,270213,1,active,NEW BALANCE OMAHA,2757 SOUTH 140TH STREET,,OMAHA,NE,68144,(402) 330-0186,,New Balance Store,US,,,,,,,10,10:00am,8:00pm,10:00am,8:00pm,10:00am,8:00pm,10:00am,8:00pm,10:00am,8:00pm,10:00am,8:00pm,12:00pm,6:00pm,Y,Y,Y,Y,Y,Y,Y,,,,,,,,NB_US,NB_STORES,NB_STORES,NB_DG,NB_US
671,,0278506_001,,,278506,1,active,NEW BALANCE TWIN CITIES,WOODBURY,10150 HUDSON ROAD SUITE 154,SAINT PAUL,MN,55129,(651) 731-8700,,New Balance Store,US,Procare,,,,,,10,9:30am,8:00pm,9:30am,8:00pm,9:30am,8:00pm,9:30am,8:00pm,9:30am,8:00pm,10:00am,6:00pm,12:00pm,6:00pm,Y,Y,Y,Y,Y,Y,Y,,,,,,,,NB_US,NB_STORES,NB_STORES,NB_DG,NB_US
681,,0278522_001,,,278522,1,active,NEW BALANCE TWIN CITIES,BLOOMINGTON,7971 SOUTHTOWN CENTER,MINNEAPOLIS,MN,55431,(952) 884-0242,,New Balance Store,US,Procare,,,,,,10,9:30am,8:00pm,9:30am,8:00pm,9:30am,8:00pm,9:30am,8:00pm,9:30am,8:00pm,10:00am,6:00pm,12:00pm,6:00pm,Y,Y,Y,Y,Y,Y,Y,,,,,,,,NB_US,NB_STORES,NB_STORES,NB_DG,NB_US
682,,0278523_001,,,278523,1,active,NEW BALANCE TWIN CITIES,MAPLE GROVE,7845 MAIN STREET NORTH,OSSEO,MN,55369,(763) 494-4878,,New Balance Store,US,Procare,,,,,,10,9:30am,8:00pm,9:30am,8:00pm,9:30am,8:00pm,9:30am,8:00pm,9:30am,8:00pm,10:00am,6:00pm,12:00pm,6:00pm,Y,Y,Y,Y,Y,Y,Y,,,,,,,,NB_US,NB_STORES,NB_STORES,NB_DG,NB_US
683,,0278602_001,,,278602,1,active,NEW BALANCE TWIN CITIES,ST LOUIS PARK,5301  EXCELSIOR BLVD,MINNEAPOLIS,MN,55416,952-905-2061,,New Balance Store,US,Procare,,,,,,10,9:30am,8:00pm,9:30am,8:00pm,9:30am,8:00pm,9:30am,8:00pm,9:30am,8:00pm,10:00am,6:00pm,12:00pm,6:00pm,Y,Y,Y,Y,Y,Y,Y,,,,,,,,NB_US,NB_STORES,NB_STORES,NB_DG,NB_US
747,,0290700_001,,,290700,1,active,NEW BALANCE PALM BEACH,3101 PGA BOULEVARD,SUITE E101,PALM BEACH GARDENS,FL,33410,(561) 721-9700,,New Balance Store,US,Procare,,,,,,10,10:00am,9:00pm,10:00am,9:00pm,10:00am,9:00pm,10:00am,9:00pm,10:00am,9:00pm,10:00am,9:00pm,12:00pm,6:00pm,Y,Y,Y,Y,Y,Y,Y,,,,,,,,NB_US,NB_STORES,NB_STORES,NB_DG,NB_US
754,,0291114_001,,,291114,1,active,NEW BALANCE TUCSON EAST SPEEDWAY,5632 EAST SPEEDWAY,SUITE 150,TUCSON,AZ,85712,(520) 747-5555,,New Balance Store,US,Procare,,,,,,10,9:30am,6:00pm,9:30am,6:00pm,9:30am,6:00pm,9:30am,6:00pm,9:30am,6:00pm,9:30am,6:00pm,11:00am,4:00pm,Y,Y,Y,Y,Y,Y,Y,,,,,,,,NB_US,NB_STORES,NB_STORES,NB_DG,NB_US
755,,0291124_001,,,291124,1,active,NEW BALANCE TUCSON NORTH ORACLE,7366 NORTH ORACLE ROAD,,TUCSON,AZ,85704,(520) 327-7772,,New Balance Store,US,Procare,,,,,,10,9:30am,6:00pm,9:30am,6:00pm,9:30am,6:00pm,9:30am,6:00pm,9:30am,6:00pm,9:30am,6:00pm,11:00am,4:00pm,Y,Y,Y,Y,Y,Y,Y,,,,,,,,NB_US,NB_STORES,NB_STORES,NB_DG,NB_US
764,,0300719_001,,,300719,1,active,NEW BALANCE BOCA,6000 GLADES ROAD,BOCA TOWN CENTER SUITE 1234,BOCA RATON,FL,33431,(561) 338-5554,,New Balance Store,US,Procare,,,,,,10,10:00am,9:00pm,10:00am,9:00pm,10:00am,9:00pm,10:00am,9:00pm,10:00am,9:00pm,10:00am,9:00pm,12:00pm,6:00pm,Y,Y,Y,Y,Y,Y,Y,,,,,,,,NB_US,NB_STORES,NB_STORES,NB_DG,NB_US
774,,0310805_001,,,310805,1,active,NEW BALANCE BOISE,4572 NORTH EAGLE ROAD,,BOISE,ID,83713,(208) 939-7463,,New Balance Store,US,Procare,,,,,,10,10:00am,7:00pm,10:00am,7:00pm,10:00am,7:00pm,10:00am,7:00pm,10:00am,7:00pm,10:00am,7:00pm,,,Y,Y,Y,Y,Y,Y,Y,,,,,,,,NB_US,NB_STORES,NB_STORES,NB_DG,NB_US
822,,0320308_001,,,320308,1,active,NEW BALANCE EDMOND,1492 SOUTH BRYANT AVENUE,,EDMOND,OK,73034,(405) 216-9142,,New Balance Store,US,Procare,,,,,,10,10:00am,7:00pm,10:00am,7:00pm,10:00am,7:00pm,10:00am,7:00pm,10:00am,7:00pm,10:00am,7:00pm,12:00pm,5:00pm,Y,Y,Y,Y,Y,Y,Y,,,,,,,,NB_US,NB_STORES,NB_STORES,NB_DG,NB_US
824,,0321019_001,,,321019,1,active,NEW BALANCE SAN ANTONIO AT HUEBNER,11255 HUEBNER ROAD,SUITE 105,SAN ANTONIO,TX,78230,(210) 699-0808,,New Balance Store,US,Procare,,,,,,10,,,,,,,,,,,,,,,Y,Y,Y,Y,Y,Y,Y,,,,,,,,NB_US,NB_STORES,NB_STORES,NB_DG,NB_US
825,,0321029_001,,,321029,1,active,NEW BALANCE HOUSTON,1800 POST OAK BOULEAVRD,SUITE 6140,HOUSTON,TX,77056,(713) 622-6275,,New Balance Store,US,Procare,,,,,,10,10:00am,7:00pm,10:00am,7:00pm,10:00am,7:00pm,10:00am,7:00pm,10:00am,7:00pm,10:00am,7:00pm,12:00pm,5:00pm,Y,Y,Y,Y,Y,Y,Y,,,,,,,,NB_US,NB_STORES,NB_STORES,NB_DG,NB_US
827,,0321049_001,,,321049,1,active,NEW BALANCE HUMBLE,20465 HIGHWAY 59 NORTH,,HUMBLE,TX,77338,(281) 446-6100,,New Balance Store,US,Procare,,,,,,10,10:00am,7:00pm,10:00am,7:00pm,10:00am,7:00pm,10:00am,7:00pm,10:00am,7:00pm,10:00am,7:00pm,12:00pm,5:00pm,Y,Y,Y,Y,Y,Y,Y,,,,,,,,NB_US,NB_STORES,NB_STORES,NB_DG,NB_US
828,,0321069_001,,,321069,1,active,NEW BALANCE THE WOODLANDS,10868 KUYKENDAHL ROAD,,SPRING,TX,77381,281-298-0050,,New Balance Store,US,Procare,,,,,,10,10:00am,7:00pm,10:00am,7:00pm,10:00am,7:00pm,10:00am,7:00pm,10:00am,7:00pm,10:00am,7:00pm,12:00pm,5:00pm,Y,Y,Y,Y,Y,Y,Y,,,,,,,,NB_US,NB_STORES,NB_STORES,NB_DG,NB_US
829,,0321121_001,,,321121,1,active,NEW BALANCE SAN ANTONIO AT AGORA,8211 AGORA PARKWAY,,SCHERTZ,TX,78154,(210) 658-4929,,New Balance Store,US,Procare,,,,,,10,,,,,,,,,,,,,,,Y,Y,Y,Y,Y,Y,Y,,,,,,,,NB_US,NB_STORES,NB_STORES,NB_DG,NB_US
830,,0321123_001,,,321123,1,active,NEW BALANCE QUARRY VILLAGE,270 EAST BASSE ROAD,SUITE 107,SAN ANTONIO,TX,78209,(210) 804-0808,,New Balance Store,US,Procare,,,,,,10,,,,,,,,,,,,,,,Y,Y,Y,Y,Y,Y,Y,,,,,,,,NB_US,NB_STORES,NB_STORES,NB_DG,NB_US
863,,0350210_001,,,350210,1,active,NEW BALANCE RICHMOND,11341 WEST BROAD STREET,,GLEN ALLEN,VA,23060,(804) 955-4801,,New Balance Store,US,Procare,,,,,,10,10:00am,9:00pm,10:00am,9:00pm,10:00am,9:00pm,10:00am,9:00pm,10:00am,9:00pm,10:00am,9:00pm,11:00am,6:00pm,Y,Y,Y,Y,Y,Y,Y,,,,,,,,NB_US,NB_STORES,NB_STORES,NB_DG,NB_US
867,,0353001_001,,,353001,1,active,NEW BALANCE SHREVEPORT,5802 LINE AVENUE,,SHREVEPORT,LA,71106,(318) 861-6674,,New Balance Store,US,Procare,,,,,,10,,,,,,,,,,,,,,,Y,Y,Y,Y,Y,Y,Y,,,,,,,,NB_US,NB_STORES,NB_STORES,NB_DG,NB_US
888,,0367300_001,,,367300,1,active,NEW BALANCE INDIANAPOLIS,1551 EAST STOP 12 ROAD,,INDIANAPOLIS,IN,46227,(317) 889-6715,,New Balance Store,US,Procare,,,,,,10,10:00am,7:00pm,10:00am,7:00pm,10:00am,7:00pm,10:00am,7:00pm,10:00am,7:00pm,10:00am,7:00pm,1:00pm,5:00pm,Y,Y,Y,Y,Y,Y,Y,,,,,,,,NB_US,NB_STORES,NB_STORES,NB_DG,NB_US
889,,0367350_001,,,367350,1,active,NEW BALANCE CARMEL,9893 NORTH MICHIGAN ROAD,SUITE 150,CARMEL,IN,46032,(317) 876-4615,,New Balance Store,US,Procare,,,,,,10,10:00am,7:00pm,10:00am,7:00pm,10:00am,7:00pm,10:00am,7:00pm,10:00am,7:00pm,10:00am,7:00pm,1:00pm,5:00pm,Y,Y,Y,Y,Y,Y,Y,,,,,,,,NB_US,NB_STORES,NB_STORES,NB_DG,NB_US
913,,0380326_001,,,380326,1,active,NEW BALANCE EASTON,3866 TOWNSFAIR WAY,,COLUMBUS,OH,43219,(614) 475-1725,,New Balance Store,US,Procare,,,,,,10,10:00am,9:00pm,10:00am,9:00pm,10:00am,9:00pm,10:00am,9:00pm,10:00am,9:00pm,10:00am,9:00pm,11:00am,6:00pm,Y,Y,Y,Y,Y,Y,Y,,,,,,,,NB_US,NB_STORES,NB_STORES,NB_DG,NB_US
914,,0380412_001,,,380412,1,active,NEW BALANCE TUTTLE CROSSING,5043 TUTTLE CROSSING,SUITE 111,DUBLIN,OH,43016,(614) 734-0136,,New Balance Store,US,Procare,,,,,,10,10:00am,9:00pm,10:00am,9:00pm,10:00am,9:00pm,10:00am,9:00pm,10:00am,9:00pm,10:00am,9:00pm,12:00pm,6:00pm,Y,Y,Y,Y,Y,Y,Y,,,,,,,,NB_US,NB_STORES,NB_STORES,NB_DG,NB_US
915,,0380413_001,,,380413,1,active,NEW BALANCE SHAKER HEIGHTS,20140 Van Aken Blvd,,Shaker Heights,OH,44122,(216) 464-3477,,New Balance Store,US,,,,,,,10,10:00 AM,8:00 PM,10:00 AM,8:00 PM,10:00 AM,8:00 PM,10:00 AM,8:00 PM,10:00 AM,8:00 PM,10:00 AM,8:00 PM,12:00 PM,6:00 PM,Y,Y,Y,Y,Y,Y,Y,,,,,,,,NB_US,NB_STORES,NB_STORES,NB_DG,NB_US
917,,0380508_001,,,380508,1,active,NEW BALANCE SOUTHPARK,600 SOUTHPARK CENTER,,STRONGSVILLE,OH,44136,(440) 572-4222,,New Balance Store,US,Procare,,,,,,10,10:00am,9:00pm,10:00am,9:00pm,10:00am,9:00pm,10:00am,9:00pm,10:00am,9:00pm,10:00am,9:00pm,11:00am,6:00pm,Y,Y,Y,Y,Y,Y,Y,,,,,,,,NB_US,NB_STORES,NB_STORES,NB_DG,NB_US
918,,0380517_02,,,380517,2,active,NEW BALANCE ATLANTA AT BUCKHEAD,3255 PEACHTREE ROAD NORTHEAST,SUITE A,ATLANTA,GA,30305,(404) 467-1312,,New Balance Store,US,Procare,,,,,,10,10:00am,8:00pm,10:00am,8:00pm,10:00am,8:00pm,10:00am,8:00pm,10:00am,8:00pm,10:00am,8:00pm,12:00pm,6:00pm,Y,Y,Y,Y,Y,Y,Y,,,,,,,,NB_US,NB_STORES,NB_STORES,NB_DG,NB_US
920,,0380728_001,,,380728,1,active,NEW BALANCE POLARIS,1554 POLARIS PARKWAY,SUITE 320,COLUMBUS,OH,43240,(614) 785-0324,,New Balance Store,US,Procare,,,,,,10,10:00am,9:00pm,10:00am,9:00pm,10:00am,9:00pm,10:00am,9:00pm,10:00am,9:00pm,10:00am,9:00pm,12:00pm,6:00pm,Y,Y,Y,Y,Y,Y,Y,,,,,,,,NB_US,NB_STORES,NB_STORES,NB_DG,NB_US
921,,0380820_001,,,380820,1,active,NEW BALANCE PROMENADE,30167 DETROIT ROAD,,WESTLAKE,OH,44145,(440) 899-2867,,New Balance Store,US,Procare,,,,,,10,10:00am,8:00pm,10:00am,8:00pm,10:00am,8:00pm,10:00am,8:00pm,10:00am,8:00pm,10:00am,8:00pm,12:00pm,6:00pm,Y,Y,Y,Y,Y,Y,Y,,,,,,,,NB_US,NB_STORES,NB_STORES,NB_DG,NB_US
922,,0381120_001,,,381120,1,active,NEW BALANCE BELDEN,4840 EVERHARD ROAD NORTHWEST,,CANTON,OH,44718,(330) 494-3857,,New Balance Store,US,Procare,,,,,,10,10:00am,8:00pm,10:00am,8:00pm,10:00am,8:00pm,10:00am,8:00pm,10:00am,8:00pm,10:00am,8:00pm,12:00pm,5:00pm,Y,Y,Y,Y,Y,Y,Y,,,,,,,,NB_US,NB_STORES,NB_STORES,NB_DG,NB_US
929,,0383590_001,,,383590,1,active,NEW BALANCE DEERFIELD POINTE,9329 MASON MONTGOMERY ROAD,SUITE D,MASON,OH,45040,(513) 229-0400,,New Balance Store,US,Procare,,,,,,10,10:00am,9:00pm,10:00am,9:00pm,10:00am,9:00pm,10:00am,9:00pm,10:00am,9:00pm,10:00am,9:00pm,12:00pm,6:00pm,Y,Y,Y,Y,Y,Y,Y,,,,,,,,NB_US,NB_STORES,NB_STORES,NB_DG,NB_US
931,,0384209_001,,,384209,1,active,NEW BALANCE FAIRLAWN,2685 WEST MARKET STREET,,AKRON,OH,44333,(330) 835-3401,,New Balance Store,US,Procare,,,,,,10,10:00am,8:00pm,10:00am,8:00pm,10:00am,8:00pm,10:00am,8:00pm,10:00am,8:00pm,10:00am,8:00pm,12:00pm,5:00pm,Y,Y,Y,Y,Y,Y,Y,,,,,,,,NB_US,NB_STORES,NB_STORES,NB_DG,NB_US
962,,0400320_001,,,400320,1,active,NEW BALANCE TROY,821 EAST BIG BEAVER ROAD,,TROY,MI,48083,(248) 740-9221,,New Balance Store,US,Procare,,,,,,10,10:00am,8:00pm,10:00am,8:00pm,10:00am,8:00pm,10:00am,8:00pm,10:00am,6:00pm,10:00am,6:00pm,,,Y,Y,Y,Y,Y,Y,Y,,,,,,,,NB_US,NB_STORES,NB_STORES,NB_DG,NB_US
990,,0410599_001,,,410599,1,active,NEW BALANCE FARMINGTON HILLS,37606 WEST 12 MILE ROAD,,FARMINGTON,MI,48331,(248) 324-0506,,New Balance Store,US,Procare,,,,,,10,10:00am,8:00pm,10:00am,8:00pm,10:00am,8:00pm,10:00am,8:00pm,10:00am,6:00pm,10:00am,6:00pm,,,Y,Y,Y,Y,Y,Y,Y,,,,,,,,NB_US,NB_STORES,NB_STORES,NB_DG,NB_US
992,,0410725_001,,,410725,1,active,NEW BALANCE GRAND RAPIDS,4499 IVANREST AVE SOUTHWEST,,GRANDVILLE,MI,49418,(616) 249-1705,,New Balance Store,US,,,,,,,10,10:00 AM,6:00 PM,10:00 AM,6:00 PM,10:00 AM,6:00 PM,10:00 AM,6:00 PM,10:00 AM,8:00 PM,10:00 AM,6:00 PM,12:00 PM,4:00 PM,Y,Y,Y,Y,Y,Y,Y,,,,,,,,NB_US,NB_STORES,NB_STORES,NB_DG,NB_US
1013,,0430199_001,,,430199,1,active,NEW BALANCE NAPLES,8799 TAMIAMI TRAIL NORTH,SUITE 101,NAPLES,FL,34108,(239) 596-8788,,New Balance Store,US,Procare,,,,,,10,10:00am,5:00pm,10:00am,5:00pm,10:00am,5:00pm,10:00am,5:00pm,10:00am,5:00pm,10:00am,4:00pm,,,Y,Y,Y,Y,Y,Y,Y,,,,,,,,NB_US,NB_STORES,NB_STORES,NB_DG,NB_US
1014,,0430309_001,,,430309,1,active,NEW BALANCE URBANA,106 WEST MAIN STREET,,URBANA,IL,61801,(217) 367-2880,,New Balance Store,US,Procare,,,,,,10,9:30am,5:30pm,9:30am,5:30pm,9:30am,5:30pm,9:30am,5:30pm,9:30am,7:00pm,9:30am,5:00pm,,,Y,Y,Y,Y,Y,Y,Y,,,,,,,,NB_US,NB_STORES,NB_STORES,NB_DG,NB_US
1039,,0445000_001,,,445000,1,Active,NEW BALANCE MERRILLVILLE,600 WEST 81ST AVENUE,SUITE A,MERRILLVILLE,IN,46410,(219) 769-7300,,New Balance Store,US,Procare,,,,,,10,9:00am,8:00pm,9:00am,8:00pm,9:00am,8:00pm,9:00am,8:00pm,9:00am,8:00pm,9:00am,6:00pm,11:00am,5:00pm,Y,Y,Y,Y,Y,Y,Y,,,,,,,,NB_US,NB_STORES,NB_STORES,NB_DG,NB_US
1040,,0445050_001,,,445050,1,active,NEW BALANCE HERITAGE SQUARE,7130 HERITAGE SQUARE DRIVE,SUITE 410,GRANGER,IN,46530,(574) 272-7300,,New Balance Store,US,Procare,,,,,,10,10:00am,8:00pm,10:00am,8:00pm,10:00am,8:00pm,10:00am,8:00pm,10:00am,8:00pm,10:00am,8:00pm,12:00pm,5:00pm,Y,Y,Y,Y,Y,Y,Y,,,,,,,,NB_US,NB_STORES,NB_STORES,NB_DG,NB_US
1041,,0445090_001,,,445090,1,Active,NEW BALANCE NAPERVILLE,2879 WEST 95TH STREET,SUITE 115,NAPERVILLE,IL,60564,(630) 637-7373,,New Balance Store,US,Procare,,,,,,10,10:00am,8:00pm,10:00am,8:00pm,10:00am,8:00pm,10:00am,8:00pm,10:00am,8:00pm,10:00am,6:00pm,11:00am,5:00pm,Y,Y,Y,Y,Y,Y,Y,,,,,,,,NB_US,NB_STORES,NB_STORES,NB_DG,NB_US
1042,,0445821_001,,,445821,1,active,NEW BALANCE NORTH SHORE,610 CENTRAL AVENUE,SUITE 169,HIGHLAND PARK,IL,60035,(847)266-8323,,New Balance Store,US,Procare,,,,,,10,10:00am,7:00pm,10:00am,7:00pm,10:00am,7:00pm,10:00am,7:00pm,10:00am,7:00pm,10:00am,5:00pm,12:00pm,5:00pm,Y,Y,Y,Y,Y,Y,Y,,,,,,,,NB_US,NB_STORES,NB_STORES,NB_DG,NB_US
1069,,0453611_001,,,453611,1,active,NEW BALANCE LINCOLN PARK,2369 NORTH CLARK STREET,,CHICAGO,IL,60614,(773) 348-1787,,New Balance Store,US,Procare,,,,,,10,9:00am,9:00pm,9:00am,9:00pm,9:00am,9:00pm,9:00am,9:00pm,9:00am,9:00pm,9:00am,7:00pm,,,Y,Y,Y,Y,Y,Y,Y,,,,,,,,NB_US,NB_STORES,NB_STORES,NB_DG,NB_US
1070,,0453613_001,,,453613,1,active,NEW BALANCE OAK BROOK,17W490 22ND STREET,,Oakbrook Terrace,IL,60181,(630) 782-6730,,New Balance Store,US,Procare,,,,,,10,10:00am,9:00pm,10:00am,9:00pm,10:00am,9:00pm,10:00am,9:00pm,10:00am,9:00pm,9:00am,7:00pm,,,Y,Y,Y,Y,Y,Y,Y,,,,,,,,NB_US,NB_STORES,NB_STORES,NB_DG,NB_US
1071,,0453614_001,,,453614,1,active,NEW BALANCE ORLAND PARK,9636 WEST 161ST STREET,,ORLAND PARK,IL,60467,(708) 364-8391,,New Balance Store,US,Procare,,,,,,10,10:00am,9:00pm,10:00am,9:00pm,10:00am,9:00pm,10:00am,9:00pm,10:00am,9:00pm,9:00am,7:00pm,,,Y,Y,Y,Y,Y,Y,Y,,,,,,,,NB_US,NB_STORES,NB_STORES,NB_DG,NB_US
1072,,0453615_001,,,453615,1,active,NEW BALANCE SCHAUMBURG,685 EAST GOLF ROAD,,SCHAUMBURG,IL,60173,(847) 519-7778,,New Balance Store,US,Procare,,,,,,10,10:00am,9:00pm,10:00am,9:00pm,10:00am,9:00pm,10:00am,9:00pm,10:00am,9:00pm,9:00am,7:00pm,,,Y,Y,Y,Y,Y,Y,Y,,,,,,,,NB_US,NB_STORES,NB_STORES,NB_DG,NB_US
1081,,0460728_001,,,460728,1,active,NEW BALANCE NEW CANAAN,128 MAIN STREET,,NEW CANAAN,CT,6840,(203) 801-0050,,New Balance Store,US,Procare,,,,,,10,10:00am,6:00pm,10:00am,6:00pm,10:00am,6:00pm,10:00am,6:00pm,10:00am,6:00pm,10:00am,6:00pm,11:00am,5:00pm,Y,Y,Y,Y,Y,Y,Y,,,,,,,,NB_US,NB_STORES,NB_STORES,NB_DG,NB_US
1082,,0460750_001,,,460750,1,active,NEW BALANCE BETHEL,83B STONY HILL ROAD,SUITE 105,BETHEL,CT,6801,(203) 739-0752,,New Balance Store,US,Procare,,,,,,10,9:30am,8:00pm,9:30am,8:00pm,9:30am,8:00pm,9:30am,8:00pm,9:30am,8:00pm,9:30am,6:00pm,11:00am,5:00pm,Y,Y,Y,Y,Y,Y,Y,,,,,,,,NB_US,NB_STORES,NB_STORES,NB_DG,NB_US
1126,,0480804_001,,,480804,1,active,NEW BALANCE SOUTH WINDSOR,501 EVERGREEN WAY,SUITE 407,SOUTH WINDSOR,CT,6074,(860) 648-2141,,New Balance Store,US,Procare,,,,,,10,10:00am,9:00pm,10:00am,9:00pm,10:00am,9:00pm,10:00am,9:00pm,10:00am,9:00pm,10:00am,9:00pm,11:00am,6:00pm,Y,Y,Y,Y,Y,Y,Y,,,,,,,,NB_US,NB_STORES,NB_STORES,NB_DG,NB_US
1129,,0480814_001,,,480814,1,active,NEW BALANCE AVON,380 WEST MAIN STREET,,AVON,CT,6001,(860) 284-9695,,New Balance Store,US,Procare,,,,,,10,10:00am,7:30pm,10:00am,7:30pm,10:00am,7:30pm,10:00am,7:30pm,10:00am,8:00pm,10:00am,7:00pm,11:00am,5:00pm,Y,Y,Y,Y,Y,Y,Y,,,,,,,,NB_US,NB_STORES,NB_STORES,NB_DG,NB_US
1333,,0516227_001,,,516227,1,active,NEW BALANCE WILLISTON,28 WALNUT STREET SUITE 150,MAPLE STREET PLACE,WILLISTON,VT,5495,(802) 288-9090,,New Balance Store,US,Procare,,,,,,10,10:00am,6:00pm,10:00am,6:00pm,10:00am,6:00pm,10:00am,6:00pm,10:00am,6:00pm,10:00am,7:00pm,11:00am,5:00pm,Y,Y,Y,Y,Y,Y,Y,,,,,,,,NB_US,NB_STORES,NB_STORES,NB_DG,NB_US
1403,,0570926_001,,,570926,1,active,NEW BALANCE TULSA,2030 UTICA SQUARE,UTICA SQUARE SHOPPING CENTER,TULSA,OK,74114,918-744-8334,,New Balance Store,US,Procare,,,,,,10,10:00am,7:00pm,10:00am,7:00pm,10:00am,7:00pm,10:00am,7:00pm,10:00am,7:00pm,10:00am,7:00pm,12:00pm,6:00pm,Y,Y,Y,Y,Y,Y,Y,,,,,,,,NB_US,NB_STORES,NB_STORES,NB_DG,NB_US
1407,,0573471_001,,,573471,1,active,NEW BALANCE CHRISTIANA,1271 CHURCHMANS ROAD,CENTER POINTE PLAZA II,NEWARK,DE,19713,(302) 366-7516,,New Balance Store,US,Procare,,,,,,10,10:00am,9:00pm,10:00am,9:00pm,10:00am,9:00pm,10:00am,9:00pm,10:00am,9:00pm,10:00am,9:00pm,11:00am,6:00pm,Y,Y,Y,Y,Y,Y,Y,,,,,,,,NB_US,NB_STORES,NB_STORES,NB_DG,NB_US
1408,,0573475_001,,,573475,1,active,NEW BALANCE BRANDYWINE,4243 Concord Pike ,,WILMINGTON,DE,19803,(302) 230-3065,,New Balance Store,US,,,,,,,10,10:00 AM,9:00 PM,10:00 AM,9:00 PM,10:00 AM,9:00 PM,10:00 AM,9:00 PM,10:00 AM,9:00 PM,10:00 AM,9:00 PM,11:00 AM,6:00 PM,Y,Y,Y,Y,Y,Y,Y,,,,,,,,NB_US,NB_STORES,NB_STORES,NB_DG,NB_US
1419,,0580498_001,,,580498,1,active,NEW BALANCE NORTH JERSEY,459 ROUTE 17 SOUTH,,HASBROUCK HEIGHTS,NJ,7604,201-727-0745,,New Balance Store,US,Procare,,,,,,10,10:00am,8:00pm,10:00am,8:00pm,10:00am,8:00pm,10:00am,8:00pm,10:00am,8:00pm,10:00am,6:00pm,,,Y,Y,Y,Y,Y,Y,Y,,,,,,,,NB_US,NB_STORES,NB_STORES,NB_DG,NB_US
1420,,0580500_001,,,580500,1,active,NEW BALANCE WESTCHESTER,350 TARRYTOWN ROAD,,WHITE PLAINS,NY,10607,(914) 993-6291,,New Balance Store,US,Procare,,,,,,10,10:00am,7:00pm,10:00am,7:00pm,10:00am,7:00pm,10:00am,7:00pm,10:00am,7:00pm,10:00am,6:00pm,12:00am,5:00pm,Y,Y,Y,Y,Y,Y,Y,,,,,,,,NB_US,NB_STORES,NB_STORES,NB_DG,NB_US
1422,,0581214_001,,,581214,1,active,NEW BALANCE PITTSBURGH HOMESTEAD,112 WEST BRIDGE STREET,,HOMESTEAD,PA,15120,(412) 464-1002,,New Balance Store,US,Procare,,,,,,10,10:00am,9:00pm,10:00am,9:00pm,10:00am,9:00pm,10:00am,9:00pm,10:00am,9:00pm,10:00am,9:00pm,12:00pm,6:00pm,Y,Y,Y,Y,Y,Y,Y,,,,,,,,NB_US,NB_STORES,NB_STORES,NB_DG,NB_US
1423,,0581250_001,,,581250,1,active,NEW BALANCE PITTSBURGH,3810 FORBES AVENUE,,PITTSBURGH,PA,15213,(412) 697-1333,,New Balance Store,US,Procare,,,,,,10,10:00am,7:00pm,10:00am,7:00pm,10:00am,7:00pm,10:00am,7:00pm,10:00am,7:00pm,10:00am,7:00pm,12:00pm,5:00pm,Y,Y,Y,Y,Y,Y,Y,,,,,,,,NB_US,NB_STORES,NB_STORES,NB_DG,NB_US
1424,,0581260_001,,,581260,1,active,NEW BALANCE PITTSBURGH WEXFORD,10616 PERRY HIGHWAY,WEXFORD PLAZA,WEXFORD,PA,15090,(724) 940-2400,,New Balance Store,US,Procare,,,,,,10,10:00am,8:00pm,10:00am,8:00pm,10:00am,8:00pm,10:00am,8:00pm,10:00am,8:00pm,10:00am,8:00pm,12:00pm,5:00pm,Y,Y,Y,Y,Y,Y,Y,,,,,,,,NB_US,NB_STORES,NB_STORES,NB_DG,NB_US
1470,,0600120_01,,,600120,1,active,NEW BALANCE SCRANTON,2031 SHOPPES BOULEVARD,THE SHOPPES AT MONTAGE,MOOSIC,PA,18507,570-344-2412,,New Balance Store,US,Procare,,,,,,10,10:00am,9:00pm,10:00am,9:00pm,10:00am,9:00pm,10:00am,9:00pm,10:00am,9:00pm,10:00am,9:00pm,11:00am,6:00pm,Y,Y,Y,Y,Y,Y,Y,,,,,,,,NB_US,NB_STORES,NB_STORES,NB_DG,NB_US
1471,,0600127_02,,,600127,2,active,NEW BALANCE SAUCON VALLEY,2960 CENTER VALLEY PARKWAY,,CENTER VALLEY,PA,18034,(610) 797-7070,,New Balance Store,US,Procare,,,,,,10,10:00am,9:00pm,10:00am,9:00pm,10:00am,9:00pm,10:00am,9:00pm,10:00am,9:00pm,10:00am,9:00pm,11:00am,6:00pm,Y,Y,Y,Y,Y,Y,Y,,,,,,,,NB_US,NB_STORES,NB_STORES,NB_DG,NB_US
1544,,0601232_001,,,601232,1,active,NEW BALANCE BATON ROUGE,7425 CORPORATE BOULEVARD,SUITE 800 TOWNE CENTER,BATON ROUGE,LA,70809,225-928-4944,,New Balance Store,US,Procare,,,,,,10,10:00am,7:00pm,10:00am,7:00pm,10:00am,7:00pm,10:00am,7:00pm,10:00am,7:00pm,10:00am,7:00pm,12:00pm,5:00pm,Y,Y,Y,Y,Y,Y,Y,,,,,,,,NB_US,NB_STORES,NB_STORES,NB_DG,NB_US
1546,,0601750_001,,,601750,1,active,NEW BALANCE PRINCETON,439 NASSAU PARK BOULEVARD,UNIT 4H,PRINCETON,NJ,8540,609-720-0103,,New Balance Store,US,Procare,,,,,,10,,,,,,,,,,,,,,,Y,Y,Y,Y,Y,Y,Y,,,,,,,,NB_US,NB_STORES,NB_STORES,NB_DG,NB_US
1595,,0610600_001,,,610600,1,active,NEW BALANCE KING OF PRUSSIA,690 WEST DEKALB PIKE,SUITE 1017,KING OF PRUSSIA,PA,19406,(610) 768-5858,,New Balance Store,US,Procare,,,,,,10,10:00am,9:00pm,10:00am,9:00pm,10:00am,9:00pm,10:00am,9:00pm,10:00am,9:00pm,10:00am,9:00pm,11:00am,6:00pm,Y,Y,Y,Y,Y,Y,Y,,,,,,,,NB_US,NB_STORES,NB_STORES,NB_DG,NB_US
1605,,0612199_001,,,612199,1,active,NEW BALANCE TOLEDO,5702 MONROE STREET,,SYLVANIA,OH,43560,(419) 882-6409,,New Balance Store,US,Procare,,,,,,10,,,,,,,,,,,,,,,Y,Y,Y,Y,Y,Y,Y,,,,,,,,NB_US,NB_STORES,NB_STORES,NB_DG,NB_US
1678,,0630300_001,,,630300,1,active,NEW BALANCE CHERRY HILL,1990 MARLTON PIKE EAST,ROUTE 70,CHERRY HILL,NJ,8003,(856) 874-0666,,New Balance Store,US,Procare,,,,,,10,10:00am,6:00pm,10:00am,6:00pm,10:00am,7:00pm,10:00am,6:00pm,10:00am,6:00pm,10:00am,5:00pm,12:00pm,4:00pm,Y,Y,Y,Y,Y,Y,Y,,,,,,,,NB_US,NB_STORES,NB_STORES,NB_DG,NB_US
1705,,0640206_001,,,640206,1,active,NEW BALANCE HARRISBURG,4600 JONESTOWN ROAD,,HARRISBURG,PA,17109,(717)-671-0970,,New Balance Store,US,Procare,,,,,,10,10:00am,9:00pm,10:00am,9:00pm,10:00am,9:00pm,10:00am,9:00pm,10:00am,9:00pm,10:00am,9:00pm,12:00pm,5:00pm,Y,Y,Y,Y,Y,Y,Y,,,,,,,,NB_US,NB_STORES,NB_STORES,NB_DG,NB_US
1706,,0640322_001,,,640322,1,active,NEW BALANCE LOUISVILLE,1983 SOUTH HURSTBOURNE PARKWAY,,LOUISVILLE,KY,40220,(502)409-5411,,New Balance Store,US,Procare,,,,,,10,10:00am,8:00pm,10:00am,8:00pm,10:00am,8:00pm,10:00am,8:00pm,10:00am,8:00pm,10:00am,8:00pm,12:00am,6:00pm,Y,Y,Y,Y,Y,Y,Y,,,,,,,,NB_US,NB_STORES,NB_STORES,NB_DG,NB_US
1726,,0643227_01,,,643227,1,active,NEW BALANCE ALTOONA,3415 PLEASANT VALLEY SHOPPING CTR,,ALTOONA,PA,16602,(814) 941-2132,,New Balance Store,US,Procare,,,,,,10,9:30am,8:00pm,9:30am,8:00pm,9:30am,8:00pm,9:30am,8:00pm,9:30am,8:00pm,9:30am,8:00pm,1:00pm,5:00pm,Y,Y,Y,Y,Y,Y,Y,,,,,,,,NB_US,NB_STORES,NB_STORES,NB_DG,NB_US
1750,,0650500_001,,,650500,1,active,NEW BALANCE MOUNT LAUREL,4313 DEARBORN CIRCLE,,MOUNT LAUREL,NJ,8054,(856) 840-0905,,New Balance Store,US,Procare,,,,,,10,,,,,,,,,,,,,,,Y,Y,Y,Y,Y,Y,Y,,,,,,,,NB_US,NB_STORES,NB_STORES,NB_DG,NB_US
1755,,0652199_001,,,652199,1,active,NEW BALANCE GENEVA,1749 SOUTH RANDALL ROAD,SUITE E,GENEVA,IL,60134,(630) 845-9437,,New Balance Store,US,,,,,,,10,10:00 AM,8:00 AM,10:00 AM,8:00 AM,10:00 AM,8:00 AM,10:00 AM,8:00 AM,10:00 AM,8:00 AM,10:00 AM,6:00 AM,12:00 AM,5:00 AM,Y,Y,Y,Y,Y,Y,Y,,,,,,,,NB_US,NB_STORES,NB_STORES,NB_DG,NB_US
1794,,0663403_001,,,663403,1,active,NEW BALANCE BALTIMORE,2135 B YORK ROAD,,LUTHERVILLE TIMONIUM,MD,21093,410-252-6500,,New Balance Store,US,Procare,,,,,,10,10:00am,6:00pm,10:00am,6:00pm,10:00am,8:00pm,10:00am,8:00pm,10:00am,8:00pm,10:00am,6:00pm,,,Y,Y,Y,Y,Y,Y,Y,,,,,,,,NB_US,NB_STORES,NB_STORES,NB_DG,NB_US
1845,,0740128_001,,,740128,1,active,NEW BALANCE DURHAM,6807-120 FAYETTEVILLE ROAD,RENAISSANCE CENTER,DURHAM,NC,27713,(919) 484-9500,,New Balance Store,US,Procare,,,,,,10,10:00am,8:00pm,10:00am,8:00pm,10:00am,8:00pm,10:00am,8:00pm,10:00am,8:00pm,10:00am,8:00pm,12:00pm,5:00pm,Y,Y,Y,Y,Y,Y,Y,,,,,,,,NB_US,NB_STORES,NB_STORES,NB_DG,NB_US
1847,,0740412_001,,,740412,1,active,NEW BALANCE RALEIGH,6204-121 GLENWOOD AVENUE,PLEASANT VALLEY PROMENADE,RALEIGH,NC,27612,(919) 510-9810,,New Balance Store,US,Procare,,,,,,10,10:00am,8:00pm,10:00am,8:00pm,10:00am,8:00pm,10:00am,8:00pm,10:00am,8:00pm,10:00am,8:00pm,12:00pm,5:00pm,Y,Y,Y,Y,Y,Y,Y,,,,,,,,NB_US,NB_STORES,NB_STORES,NB_DG,NB_US
1869,,0749960_001,,,749960,1,active,NEW BALANCE MIAMI,19575 BISCAYNE BOULEVARD,SUITE 229,MIAMI,FL,33180,(305) 931-1290,,New Balance Store,US,Procare,,,,,,10,10:00am,9:30pm,10:00am,9:30pm,10:00am,9:30pm,10:00am,9:30pm,10:00am,9:30pm,10:00am,9:30pm,12:00pm,8:00pm,Y,Y,Y,Y,Y,Y,Y,,,,,,,,NB_US,NB_STORES,NB_STORES,NB_DG,NB_US
1874,,0760403_001,,,760403,1,active,NEW BALANCE SARASOTA,1872 STICKNEY POINT,,SARASOTA,FL,34231,(941) 921-3696,,New Balance Store,US,Procare,,,,,,10,9:00am,9:00pm,9:00am,9:00pm,9:00am,9:00pm,9:00am,9:00pm,9:00am,9:00pm,9:00am,9:00pm,11:00am,6:00pm,Y,Y,Y,Y,Y,Y,Y,,,,,,,,NB_US,NB_STORES,NB_STORES,NB_DG,NB_US
1875,,0760711_001,,,760711,1,active,NEW BALANCE UNIVERSITY PARK,8204 TOURIST CENTER DRIVE,,BRADENTON,FL,34201,(941) 921-3696,,New Balance Store,US,Procare,,,,,,10,9:00am,8:00pm,9:00am,8:00pm,9:00am,8:00pm,9:00am,8:00pm,9:00am,8:00pm,9:00am,8:00pm,11:00am,6:00pm,Y,Y,Y,Y,Y,Y,Y,,,,,,,,NB_US,NB_STORES,NB_STORES,NB_DG,NB_US
1889,,0771205_001,,,771205,1,active,NEW BALANCE WILMINGTON,6801 PARKER FARM DRIVE,SUITE 135,WILMINGTON,NC,28405,(910) 256-0571,,New Balance Store,US,Procare,,,,,,10,10:00am,7:00pm,10:00am,7:00pm,10:00am,7:00pm,10:00am,7:00pm,10:00am,7:00pm,10:00am,7:00pm,1:00pm,6:00pm,Y,Y,Y,Y,Y,Y,Y,,,,,,,,NB_US,NB_STORES,NB_STORES,NB_DG,NB_US
1902,,0774711_001,,,774711,1,active,NEW BALANCE JACKSONVILLE,10095 BEACH BOULEVARD,SUITE 500,JACKSONVILLE,FL,32246,904-620-0483,,New Balance Store,US,Procare,,,,,,10,10:00am,6:00pm,10:00am,6:00pm,10:00am,6:00pm,10:00am,6:00pm,10:00am,6:00pm,10:00am,6:00pm,,,Y,Y,Y,Y,Y,Y,Y,,,,,,,,NB_US,NB_STORES,NB_STORES,NB_DG,NB_US
1910,,0785199_001,,,785199,1,active,NEW BALANCE FORT MYERS,1900 TRAILWINDS DRIVE,,FORT MYERS,FL,33907,(239) 939-2239,,New Balance Store,US,Procare,,,,,,10,,,,,,,,,,,,,,,Y,Y,Y,Y,Y,Y,Y,,,,,,,,NB_US,NB_STORES,NB_STORES,NB_DG,NB_US
1919,,0790424_001,,,790424,1,active,NEW BALANCE CHARLOTTE,2211 MATTHEWS TOWNSHIP PARKWAY,SUITE A,MATTHEWS,NC,28105,(704) 845-2190,,New Balance Store,US,Procare,,,,,,10,10:00am,8:00pm,10:00am,8:00pm,10:00am,8:00pm,10:00am,8:00pm,10:00am,8:00pm,10:00am,9:00pm,12:00pm,6:00pm,Y,Y,Y,Y,Y,Y,Y,,,,,,,,NB_US,NB_STORES,NB_STORES,NB_DG,NB_US
1956,,0800930_001,,,800930,1,active,NEW BALANCE REHOBOTH,18798 COASTAL HIGHWAY,SUITE 1,REHOBOTH BEACH,DE,19971,(302) 644-1776,,New Balance Store,US,Procare,,,,,,10,10:00am,8:00pm,10:00am,8:00pm,10:00am,8:00pm,10:00am,8:00pm,10:00am,9:00pm,10:00am,9:00pm,11:00am,6:00pm,Y,Y,Y,Y,Y,Y,Y,,,,,,,,NB_US,NB_STORES,NB_STORES,NB_DG,NB_US
1957,,0800950_001,,,800950,1,active,NEW BALANCE VIRGINIA BEACH,729 FIRST COLONIAL ROAD SUITE 103,MARKET PLACE AT HILLTOP,VIRGINIA BEACH,VA,23451,757-422-1776,,New Balance Store,US,Procare,,,,,,10,10:00am,8:00pm,10:00am,8:00pm,10:00am,8:00pm,10:00am,8:00pm,10:00am,9:00pm,10:00am,9:00pm,11:00am,6:00pm,Y,Y,Y,Y,Y,Y,Y,,,,,,,,NB_US,NB_STORES,NB_STORES,NB_DG,NB_US
1960,,0801700_001,,,801700,1,active,NEW BALANCE PALM DESERT,73 399 EL PASEO,SUITE 105,PALM DESERT,CA,92260,760-346-1112,,New Balance Store,US,Procare,,,,,,10,10:00am,6:00pm,10:00am,6:00pm,10:00am,6:00pm,10:00am,6:00pm,10:00am,7:00pm,10:00am,7:00pm,11:00am,6:00pm,Y,Y,Y,Y,Y,Y,Y,,,,,,,,NB_US,NB_STORES,NB_STORES,NB_DG,NB_US
1974,,0810217_001,,,810217,1,active,NEW BALANCE HUNTSVILLE,1395 ENTERPRISE WAY,,HUNTSVILLE,AL,35806,(256) 922-4555,,New Balance Store,US,Procare,,,,,,10,10:00am,7:00pm,10:00am,7:00pm,10:00am,7:00pm,10:00am,7:00pm,10:00am,7:00pm,10:00am,7:00pm,12:00pm,6:00pm,Y,Y,Y,Y,Y,Y,Y,,,,,,,,NB_US,NB_STORES,NB_STORES,NB_DG,NB_US
1983,,0812015_001,,,812015,1,active,NEW BALANCE ATHENS,1850 EPPS BRIDGE PARKWAY,THE MARKET AT EPP BRIDGE,ATHENS,GA,30606,(706) 552-3668,,New Balance Store,US,Procare,,,,,,10,10:00am,7:00pm,10:00am,7:00pm,10:00am,7:00pm,10:00am,7:00pm,10:00am,7:00pm,10:00am,7:00pm,,,Y,Y,Y,Y,Y,Y,Y,,,,,,,,NB_US,NB_STORES,NB_STORES,NB_DG,NB_US
1984,,0812399_001,,,812399,1,active,NEW BALANCE KNOXVILLE,8027 KINGSTON PIKE,,KNOXVILLE,TN,37919,(865) 539-1100,,New Balance Store,US,,,,,,,10,10:00 AM,8:00 PM,10:00 AM,8:00 PM,10:00 AM,8:00 PM,10:00 AM,8:00 PM,10:00 AM,8:00 PM,10:00 AM,8:00 PM,,,Y,Y,Y,Y,Y,Y,Y,,,,,,,,NB_US,NB_STORES,NB_STORES,NB_DG,NB_US
2016,,0821599_001,,,821599,1,active,NEW BALANCE TAMPA,13234 NORTH DALE MABRY,,TAMPA,FL,33618,(813) 265-4859,,New Balance Store,US,Procare,,,,,,10,10:00am,8:00pm,10:00am,8:00pm,10:00am,8:00pm,10:00am,8:00pm,10:00am,8:00pm,10:00am,7:00pm,12:00pm,6:00pm,Y,Y,Y,Y,Y,Y,Y,,,,,,,,NB_US,NB_STORES,NB_STORES,NB_DG,NB_US
2017,,0821601_01,,,821601,1,active,NEW BALANCE TAMPA/WESTSHORE,211 WEST SHORE MALL,,TAMPA,FL,33609,(877) 628-2672,,New Balance Store,US,Procare,,,,,,10,10:00am,9:00pm,10:00am,9:00pm,10:00am,9:00pm,10:00am,9:00pm,10:00am,9:00pm,10:00am,9:00pm,12:00pm,6:00pm,Y,Y,Y,Y,Y,Y,Y,,,,,,,,NB_US,NB_STORES,NB_STORES,NB_DG,NB_US
2197,,0901206_001,,,901206,1,active,NEW BALANCE ST LOUIS OLIVE BLVD,11633 OLIVE BOULEVARD,,SAINT LOUIS,MO,63141,(314) 872-2929,,New Balance Store,US,,,,,,,10,9:30 AM,8:00 PM,9:30 AM,8:00 PM,9:30 AM,8:00 PM,9:30 AM,8:00 PM,9:30 AM,8:00 PM,9:30 AM,6:00 PM,12:00 PM,5:00 PM,Y,Y,Y,Y,Y,Y,,,,,,,,,NB_US,NB_STORES,NB_STORES,NB_DG,NB_US
2199,,0901617_001,,,901617,1,active,NEW BALANCE ST LOUIS FAIRVIEW,6540 NORTH ILLINOIS STREET,SUITE 104,FAIRVIEW HEIGHTS,IL,62208,(618) 632-1640,,New Balance Store,US,,,,,,,10,10:00 AM,8:00 PM,10:00 AM,8:00 PM,10:00 AM,8:00 PM,10:00 AM,8:00 PM,10:00 AM,8:00 PM,10:00 AM,8:00 PM,12:00 PM,6:00 PM,Y,Y,Y,Y,Y,Y,Y,,,,,,,,NB_US,NB_STORES,NB_STORES,NB_DG,NB_US
2200,,0901658_001,,,901658,1,active,NEW BALANCE BRANSON,1106 BRANSON LANDING BOULEVARD,,BRANSON,MO,65616,(417) 348-0093,,New Balance Store,US,,,,,,,10,10:00 AM,9:00 PM,10:00 AM,9:00 PM,10:00 AM,9:00 PM,10:00 AM,9:00 PM,9:00 AM,10:00 PM,9:00 AM,10:00 PM,10:00 AM,8:00 PM,Y,Y,Y,Y,Y,Y,,,,,,,,,NB_US,NB_STORES,NB_STORES,NB_DG,NB_US
2201,,0901662_001,,,901662,1,active,NEW BALANCE ST LOUIS CLAYTON ROAD,6678 CLAYTON ROAD,,SAINT LOUIS,MO,63117,(314) 646-1574,,New Balance Store,US,,,,,,,10,9:30 AM,8:00 PM,9:30 AM,8:00 PM,9:30 AM,8:00 PM,9:30 AM,8:00 PM,9:30 AM,8:00 PM,9:30 AM,6:00 PM,12:00 PM,5:00 PM,Y,Y,Y,Y,Y,Y,,,,,,,,,NB_US,NB_STORES,NB_STORES,NB_DG,NB_US
2202,,0901666_001,,,901666,1,active,NEW BALANCE KANSAS CITY,6607 WEST 119TH STREET,,LEAWOOD,KS,66209,(913) 696-1646,,New Balance Store,US,Procare,,,,,,10,9:30am,8:00pm,9:30am,8:00pm,9:30am,8:00pm,9:30am,8:00pm,9:30am,8:00pm,9:30am,6:00pm,12:00pm,5:00pm,Y,Y,Y,Y,Y,Y,Y,,,,,,,,NB_US,NB_STORES,NB_STORES,NB_DG,NB_US
2244,,0909258_01,,,909258,1,active,NEW BALANCE HOT SPRING,201 AIRPORT ROAD,,HOT SPRINGS NATIONAL PARK,AR,71913,(501) 623-3115,,New Balance Store,US,Procare,,,,,,10,,,,,,,,,,,,,,,Y,Y,Y,Y,Y,Y,Y,,,,,,,,NB_US,NB_STORES,NB_STORES,NB_DG,NB_US
2245,,0909603_002,,,909603,2,active,NEW BALANCE ROGERS,1720 WEST WALNUT,,ROGERS,AR,72756,(479) 636-9200,,New Balance Store,US,Procare,,,,,,10,,,,,,,,,,,,,,,Y,Y,Y,Y,Y,Y,Y,,,,,,,,NB_US,NB_STORES,NB_STORES,NB_DG,NB_US
2246,,0909715_01,,,909715,1,active,NEW BALANCE LITTLE ROCK,13900 CANTRELL ROAD,,LITTLE ROCK,AR,72223,(501) 224-8877,,New Balance Store,US,Procare,,,,,,10,10:00am,6:00pm,10:00am,6:00pm,10:00am,6:00pm,10:00am,6:00pm,10:00am,6:00pm,10:00am,6:00pm,,,Y,Y,Y,Y,Y,Y,Y,,,,,,,,NB_US,NB_STORES,NB_STORES,NB_DG,NB_US
2267,,1000210_001,,,1000210,1,active,NEW BALANCE CARDIFF,2009 NEWCASTLE AVENUE,,CARDIFF BY THE SEA,CA,92007,(760) 479-9722,,New Balance Store,US,Procare,,,,,,10,10:00am,7:00pm,10:00am,7:00pm,10:00am,7:00pm,10:00am,7:00pm,10:00am,7:00pm,10:00am,7:00pm,11:00am,6:00pm,Y,Y,Y,Y,Y,Y,Y,,,,,,,,NB_US,NB_STORES,NB_STORES,NB_DG,NB_US
2271,,1000600_001,,,1000600,1,active,NEW BALANCE SANTA MONICA,2600 WILSHIRE BOULEVARD,,SANTA MONICA,CA,90403,(310) 829-2900,,New Balance Store,US,Procare,,,,,,10,10:00am,8:00pm,10:00am,8:00pm,10:00am,8:00pm,10:00am,8:00pm,10:00am,8:00pm,10:00am,6:00pm,10:00am,6:00pm,Y,Y,Y,Y,Y,Y,Y,,,,,,,,NB_US,NB_STORES,NB_STORES,NB_DG,NB_US
2272,,1000601_001,,,1000601,1,active,NEW BALANCE SOUTH BAY TORRANCE,20611 HAWTHORNE BOULEVARD,,TORRANCE,CA,90503,(310) 921-2700,,New Balance Store,US,Procare,,,,,,10,10:00am,8:00pm,10:00am,8:00pm,10:00am,8:00pm,10:00am,8:00pm,10:00am,8:00pm,10:00am,6:00pm,10:00am,6:00pm,Y,Y,Y,Y,Y,Y,Y,,,,,,,,NB_US,NB_STORES,NB_STORES,NB_DG,NB_US
2273,,1000602_001,,,1000602,1,active,NEW BALANCE PASADENA,270 SOUTH ARROYO PARKWAY,,PASADENA,CA,91105,(626) 793-7900,,New Balance Store,US,Procare,,,,,,10,10:00am,8:00pm,10:00am,8:00pm,10:00am,8:00pm,10:00am,8:00pm,10:00am,8:00pm,10:00am,6:00pm,10:00am,6:00pm,Y,Y,Y,Y,Y,Y,Y,,,,,,,,NB_US,NB_STORES,NB_STORES,NB_DG,NB_US
2385,,1003299_001,,,1003299,1,active,NEW BALANCE ARROWHEAD,7369 WEST BELL ROAD,SUITE 7,PEORIA,AZ,85382,(623) 334-6868,,New Balance Store,US,Procare,,,,,,10,10:00am,7:00pm,10:00am,7:00pm,10:00am,7:00pm,10:00am,7:00pm,10:00am,6:00pm,10:00am,6:00pm,11:00am,5:00pm,Y,Y,Y,Y,Y,Y,Y,,,,,,,,NB_US,NB_STORES,NB_STORES,NB_DG,NB_US
2386,,1003300_001,,,1003300,1,active,NEW BALANCE SCOTTSDALE,16211 NORTH SCOTTSDALE ROAD,SUITE A2,SCOTTSDALE,AZ,85254,(480) 315-0404,,New Balance Store,US,Procare,,,,,,10,10:00am,7:00pm,10:00am,7:00pm,10:00am,7:00pm,10:00am,7:00pm,10:00am,6:00pm,10:00am,6:00pm,11:00am,5:00pm,Y,Y,Y,Y,Y,Y,Y,,,,,,,,NB_US,NB_STORES,NB_STORES,NB_DG,NB_US
2387,,1003350_001,,,1003350,1,active,NEW BALANCE CHANDLER,2860 WEST CHANDLER BOULEVARD,SUITE 11,CHANDLER,AZ,85224,(480) 792-0606,,New Balance Store,US,Procare,,,,,,10,10:00am,7:00pm,10:00am,7:00pm,10:00am,7:00pm,10:00am,7:00pm,10:00am,6:00pm,10:00am,6:00pm,11:00am,5:00pm,Y,Y,Y,Y,Y,Y,Y,,,,,,,,NB_US,NB_STORES,NB_STORES,NB_DG,NB_US
2388,,1004299_001,,,1004299,1,active,NEW BALANCE SOUTH COAST PLAZA,3333 SOUTH BEAR STREET,,COSTA MESA,CA,92626,(714) 434-9405,,New Balance Store,US,Procare,,,,,,10,10:00am,9:00pm,10:00am,9:00pm,10:00am,9:00pm,10:00am,9:00pm,10:00am,9:00pm,10:00am,8:00pm,11:00am,6:30pm,Y,Y,Y,Y,Y,Y,Y,,,,,,,,NB_US,NB_STORES,NB_STORES,NB_DG,NB_US
2391,,1011290_001,,,1011290,1,active,NEW BALANCE LITTLETON,7301 SOUTH SANTA FE DRIVE,SUITE 520,LITTLETON,CO,80120,(303) 795-3135,,New Balance Store,US,Procare,,,,,,10,10:00am,9:00pm,10:00am,9:00pm,10:00am,9:00pm,10:00am,9:00pm,10:00am,9:00pm,10:00am,9:00pm,11:00am,6:00pm,Y,Y,Y,Y,Y,Y,Y,,,,,,,,NB_US,NB_STORES,NB_STORES,NB_DG,NB_US
2392,,1011350_001,,,1011350,1,active,NEW BALANCE CHERRY CREEK,156 STEELE STREET,,DENVER,CO,80206,720-390-7999,,New Balance Store,US,Procare,,,,,,10,10:00am,7:00pm,10:00am,7:00pm,10:00am,7:00pm,10:00am,7:00pm,10:00am,7:00pm,10:00am,7:00pm,11:00am,6:00pm,Y,Y,Y,Y,Y,Y,Y,,,,,,,,NB_US,NB_STORES,NB_STORES,NB_DG,NB_US
2633,,3000705_001,,,3000705,1,active,NEW BALANCE DELTA,6345 120TH STREET,SUITE 109,DELTA,BC,V4E2A6,(604)501-1333,,New Balance Store,CA,,,,,,,10,10:00 AM,6:00 PM,10:00 AM,6:00 PM,10:00 AM,6:00 PM,10:00 AM,6:00 PM,10:00 AM,7:00 PM,10:00 AM,6:00 PM,11:00 AM,5:00 PM,Y,Y,Y,Y,Y,Y,Y,,,,,,,,NB_US,NB_STORES,NB_STORES,NB_DG,NB_US
2772,,3003696_001,,,3003696,1,active,NEW BALANCE ROBSON,1158 Robson St,,Vancouver,BC,V6E1B2,604-685-2281,,New Balance Store,CA,,,,,,,10,10:00 AM,9:00 PM,10:00 AM,9:00 PM,10:00 AM,9:00 PM,10:00 AM,9:00 PM,10:00 AM,9:00 PM,10:00 AM,9:00 PM,11:00 AM,7:00 PM,Y,Y,Y,Y,Y,Y,Y,,,,,,,,NB_US,NB_STORES,NB_STORES,NB_DG,NB_US
2817,,3003930_03,,,3003930,3,active,NEW BALANCE TORONTO,1510 YONGE ST,,TORONTO,ON,M4T1Z6,(416)962-8662,,New Balance Store,Ca,PODIATRY ACCOUNT,,,,,,10,10:00am,9:00pm,10:00am,9:00pm,10:00am,9:00pm,10:00am,9:00pm,10:00am,9:00pm,9:00am,6:00pm,11:00am,6:00pm,Y,Y,Y,Y,Y,Y,Y,,,,,,,,NB_US,NB_STORES,NB_STORES,NB_DG,NB_US
2818,,3003933_002,,,3003933,2,active,NEW BALANCE TORONTO,2252 BLOOR ST WEST,,TORONTO,ON,M6S1N6,416-766-8882,,New Balance Store,Ca,PODIATRY ACCOUNT,,,,,,10,10:00am,9:00pm,10:00am,9:00pm,10:00am,9:00pm,10:00am,9:00pm,10:00am,9:00pm,9:00am,6:00pm,11:00am,6:00pm,Y,Y,Y,Y,Y,Y,Y,,,,,,,,NB_US,NB_STORES,NB_STORES,NB_DG,NB_US
2819,,3003933_003,,,3003933,3,active,NEW BALANCE TORONTO,BAYVIEW VILLAGE SHOPPING CENTRE,2901 BAYVIEW AVE,NORTH YORK,ON,M2K1E6,416-225-7770,,New Balance Store,Ca,PODIATRY ACCOUNT,,,,,,10,10:00am,9:00pm,10:00am,9:00pm,10:00am,9:00pm,10:00am,9:00pm,10:00am,9:00pm,9:00am,6:00pm,11:00am,6:00pm,Y,Y,Y,Y,Y,Y,Y,,,,,,,,NB_US,NB_STORES,NB_STORES,NB_DG,NB_US
2820,,3003933_006,,,3003933,6,active,NEW BALANCE TORONTO,SHOPS AT DON MILLS,39 KARL FRASER ROAD.BLDG.P-P3,NORTH YORK,ON,M3C0E5,416-390-9998,,New Balance Store,Ca,PODIATRY ACCOUNT,,,,,,10,10:00am,9:00pm,10:00am,9:00pm,10:00am,9:00pm,10:00am,9:00pm,10:00am,9:00pm,9:00am,6:00pm,11:00am,6:00pm,Y,Y,Y,Y,Y,Y,Y,,,,,,,,NB_US,NB_STORES,NB_STORES,NB_DG,NB_US
2885,,3004440_001,,,3004440,1,active,NEW BALANCE LONDON,1422 FANSHAWE PARK ROAD WEST,,LONDON,ON,N6A0A4,519-657-0112,,New Balance Store,Ca,PODIATRY ACCOUNT,,,,,,10,10:00am,8:00pm,10:00am,8:00pm,10:00am,8:00pm,10:00am,9:00pm,10:00am,9:00pm,10:00am,6:00pm,12:00pm,5:00pm,Y,Y,Y,Y,Y,Y,Y,,,,,,,,NB_US,NB_STORES,NB_STORES,NB_DG,NB_US
2886,,3004450_001,,,3004450,1,active,NEW BALANCE WINDSOR,4115 WALKER ROAD,,WINDSOR,ON,N8W3T6,(519)250-9511,,New Balance Store,Ca,PODIATRY ACCOUNT,,,,,,10,10:00am,8:00pm,10:00am,8:00pm,10:00am,8:00pm,10:00am,8:00pm,10:00am,8:00pm,10:00am,5:00pm,11:00am,4:00pm,Y,Y,Y,Y,Y,Y,Y,,,,,,,,NB_US,NB_STORES,NB_STORES,NB_DG,NB_US
2903,,3006800_001,,,3006800,1,active,NEW BALANCE VICTORIA,1205 GOVERNMENT STREET,,VICTORIA,BC,V8W1Y5,250-382-9327,,New Balance Store,Ca,PODIATRY ACCOUNT,,,,,,10,9:30am,8:00pm,9:30am,8:00pm,9:30am,8:00pm,9:30am,9:00pm,9:30am,9:00pm,9:30am,9:00pm,10:00am,6:00pm,Y,Y,Y,Y,Y,Y,Y,,,,,,,,NB_US,NB_STORES,NB_STORES,NB_DG,NB_US
2904,,3006902_001,,,3006902,1,active,NEW BALANCE OTTAWA,1371B WOODROFFE AVENUE,,NEPEAN,ON,K2G1V7,613-224-2424,,New Balance Store,Ca,PODIATRY ACCOUNT,,,,,,10,9:30am,9:00pm,9:30am,9:00pm,9:30am,9:00pm,9:30am,9:00pm,9:30am,9:00pm,10:00am,6:00pm,11:00am,5:00pm,Y,Y,Y,Y,Y,Y,Y,,,,,,,,NB_US,NB_STORES,NB_STORES,NB_DG,NB_US
2916,,3030010_001,,,3030010,1,active,NEW BALANCE MONTREAL,677 STE CATHERINE OUEST,,MONTREAL,QC,H3B5K4,514-844-2777,,New Balance Store,Ca,PODIATRY ACCOUNT,,,,,,10,10:00am,6:00pm,10:00am,6:00pm,10:00am,9:00pm,10:00am,9:00pm,10:00am,9:00pm,10:00am,6:00pm,11:00am,5:00pm,Y,Y,Y,Y,Y,Y,Y,,,,,,,,NB_US,NB_STORES,NB_STORES,NB_DG,NB_US
2934,,3060069_001,,,3060069,1,active,NEW BALANCE CALGARY,303 150 CROWFOOT CR NW,,CALGARY,AB,T3G3T2,403-220-1118,,New Balance Store,Ca,,,,,,,10,9:30am,8:00pm,9:30am,8:00pm,9:30am,8:00pm,9:30am,8:00pm,9:30am,8:00pm,10:00am,6:00pm,12:00pm,5:00pm,Y,Y,Y,Y,Y,Y,Y,,,,,,,,NB_US,NB_STORES,NB_STORES,NB_DG,NB_US
2953,,3080102_001,,,3080102,1,active,NEW BALANCE LANGLEY,19950 WILLOWBROOK DRIVE,,LANGLEY,BC,V2Y1K9,604-514-0022,,New Balance Store,CA,,,,,,,10,10:00 AM,6:00 PM,10:00 AM,6:00 PM,10:00 AM,6:00 PM,10:00 AM,6:00 PM,10:00 AM,7:00 PM,10:00 AM,6:00 PM,11:00 AM,5:00 PM,Y,Y,Y,Y,Y,Y,Y,,,,,,,,NB_US,NB_STORES,NB_STORES,NB_DG,NB_US
2965,,0640325_001,,,640325,1,active,NEW BALANCE FREDERICK,220-C  SHOREBIRD STREET,,FREDERICK,MD,21701,301-631-1950,,New Balance Store,US,Procare,,,,,,10,9:30am,8:00pm,9:30am,8:00pm,9:30am,8:00pm,9:30am,8:00pm,9:30am,8:00pm,9:30am,8:00pm,12:00pm,5:00pm,Y,Y,Y,Y,Y,Y,Y,,,,,,,,NB_US,NB_STORES,NB_STORES,NB_DG,NB_US
3042,,0820200_001,,,820200,1,active,NEW BALANCE D.C.,5301 WISCONSIN AVENUE NORTHWEST,SUITE 107,WASHINGTON,DC,20015,202-237-1840,,New Balance Store,US,,,,,,,10,10:00 AM,9:00 PM,10:00 AM,9:00 PM,10:00 AM,9:00 PM,10:00 AM,9:00 PM,10:00 AM,9:00 PM,9:00 AM,6:00 PM,11:00 AM,6:00 PM,Y,Y,Y,Y,Y,Y,Y,,,,,,,,NB_US,NB_STORES,NB_STORES,NB_DG,NB_US
3044,,3003930_08,,,3003930,8,active,NEW BALANCE TORONTO,613 DANFORTH AVE,,TORONTO,ON,M4K1R2,416-466-4444,,New Balance Store,Ca,PODIATRY ACCOUNT,,,,,,10,10:00am,9:00pm,10:00am,9:00pm,10:00am,9:00pm,10:00am,9:00pm,10:00am,9:00pm,9:00am,6:00pm,11:00am,6:00pm,Y,Y,Y,Y,Y,Y,Y,,,,,,,,NB_US,NB_STORES,NB_STORES,NB_DG,NB_US
3046,,0410314_001,,,410314,1,active,NEW BALANCE MACOMB,13307 HALL ROAD,,UTICA,MI,48315,586-254-5500,,New Balance Store,US,Procare,,,,,,10,10:00am,8:00pm,10:00am,8:00pm,10:00am,8:00pm,10:00am,8:00pm,10:00am,6:00pm,10:00am,6:00pm,,,Y,Y,Y,Y,Y,Y,Y,,,,,,,,NB_US,NB_STORES,NB_STORES,NB_DG,NB_US
3051,,2000865_002,,,2000865,2,active,NEW BALANCE SAN JOSE,3691 UNION AVENUE,,SAN JOSE,CA,95124,(408) 377-5500,,New Balance Store,US,,,,,,,10,10:00am,8:00pm,10:00am,8:00pm,10:00am,8:00pm,10:00am,8:00pm,10:00am,8:00pm,10:00am,6:00pm,10:00am,6:00pm,Y,Y,Y,Y,Y,Y,Y,,,,,,,,NB_US,NB_STORES,NB_STORES,NB_DG,NB_US
3053,,1001800_002,,,1001800,2,active,NEW BALANCE ROSEVILLE,1198 ROSEVILLE PARKWAY,SUITE 105,ROSEVILLE,CA,95678,916-773-7463,,New Balance Store,US,,,,,,,10,,,,,,,,,,,,,,,Y,Y,Y,Y,Y,Y,Y,,,,,,,,NB_US,NB_STORES,NB_STORES,NB_DG,NB_US
3054,,2000875_002,,,2000875,2,active,NEW BALANCE SANTA CLARA,3912 RIVERMARK PLAZA,,SANTA CLARA,CA,95054,(408) 988-8825,,New Balance Store,US,Procare,,,,,,10,10:00am,8:00pm,10:00am,8:00pm,10:00am,8:00pm,10:00am,8:00pm,10:00am,8:00pm,10:00am,6:00pm,10:00am,6:00pm,Y,Y,Y,Y,Y,Y,Y,,,,,,,,NB_US,NB_STORES,NB_STORES,NB_DG,NB_US
3055,,0774752_001,,,774752,1,active,NEW BALANCE ORANGE PARK,1871 WELLS ROAD,UNIT 2,ORANGE PARK,FL,32073,904 592 7892,,New Balance Store,US,Procare,,,,,,10,10:00am,8:00pm,10:00am,8:00pm,10:00am,8:00pm,10:00am,8:00pm,10:00am,8:00pm,10:00am,8:00pm,,,Y,Y,Y,Y,Y,Y,Y,,,,,,,,NB_US,NB_STORES,NB_STORES,NB_DG,NB_US
3457,,0880628_001,,,880628,1,active,NEW BALANCE JACKSON,"NBO SHOES, LLC","163 RIDGEWAY, SUITE B",FLOWOOD,MS,39232,,,New Balance Store,US,,,,,,,10,,,,,,,,,,,,,,,Y,Y,Y,Y,Y,Y,Y,,,,,,,,NB_US,NB_STORES,NB_STORES,NB_DG,NB_US
3534,,3008850_001,,,3008850,1,active,NEW BALANCE SASKATOON,704 BROADWAY AVENUE,,SASKATOON,SK,S7N1B4,306-244-0957,,New Balance Store,Ca,,,,,,,10,10:00am,6:00pm,10:00am,6:00pm,10:00am,6:00pm,10:00am,9:00pm,10:00am,6:00pm,10:00am,6:00pm,12:00pm,5:00pm,Y,Y,Y,Y,Y,Y,Y,,,,,,,,NB_US,NB_STORES,NB_STORES,NB_DG,NB_US
3537,,0909603_01,,,909603,1,active,NEW BALANCE ROGERS,1720 WEST WALNUT,,ROGERS,AR,72756,(479) 636-9200,,New Balance Store,US,,,,,,,10,,,,,,,,,,,,,,,Y,Y,Y,Y,Y,Y,Y,,,,,,,,NB_US,NB_STORES,NB_STORES,NB_DG,NB_US
3540,,0453617_001,,,453617,1,active,NEW BALANCE CHICAGO HYDE PARK,5500 S. LAKE PARK AVENUE,,CHICAGO,IL,60637,(773) 752-6847,,New Balance Store,US,,,,,,,10,9:00 AM,9:00 AM,9:00 AM,9:00 AM,9:00 AM,9:00 AM,9:00 AM,9:00 AM,9:00 AM,9:00 AM,9:00 AM,7:00 AM,,,Y,Y,Y,Y,Y,Y,Y,,,,,,,,NB_US,NB_STORES,NB_STORES,NB_DG,NB_US
3579,,3003930_005,,,3003930,5,active,NEW BALANCE OAKVILLE,1011 UPPER MIDDLE ROAD,,OAKVILLE,ON,L6H4L5,905-337-9393,,New Balance Store,Ca,,,,,,,10,10:00am,9:00pm,10:00am,9:00pm,10:00am,9:00pm,10:00am,9:00pm,10:00am,9:00pm,9:00am,6:00pm,11:00am,6:00pm,Y,Y,Y,Y,Y,Y,Y,,,,,,,,NB_US,NB_STORES,NB_STORES,NB_DG,NB_US
3590,,0628295_002,,,628295,2,active,NEW BALANCE PUERTO RICO,"CHARDON AVE. #210, STE 104",,SAN JUAN,PR,918,(787)756-2121,,New Balance Store,US,Procare,,,,,,10,,,,,,,,,,,,,,,Y,Y,Y,Y,Y,Y,Y,,,,,,,,NB_US,NB_STORES,NB_STORES,NB_DG,NB_US
3701,,0880210_001,,,880210,1,active,NEW BALANCE WINSTON-SALEM,THRUWAY SHOPPING CENTER,202-A SOUTH STRATFORD ROAD,WINSTON SALEM,NC,27103,(336) 893-7908,,New Balance Store,US,Procare,,,,,,10,,,,,,,,,,,,,,,Y,Y,Y,Y,Y,Y,Y,,,,,,,,NB_US,NB_STORES,NB_STORES,NB_DG,NB_US
3723,,3007850_001,,,3007850,1,active,NEW BALANCE NANAIMO,103-1825 BOWEN ROAD,,NANAIMO,BC,V9S1H1,250-591-1995,,New Balance Store,Ca,PODIATRY ACCOUNT,,,,,,10,10:00am,6:00pm,10:00am,6:00pm,10:00am,6:00pm,10:00am,6:00pm,10:00am,6:00pm,10:00am,6:00pm,,,Y,Y,Y,Y,Y,Y,Y,,,,,,,,NB_US,NB_STORES,NB_STORES,NB_DG,NB_US
3762,,0800115_002,,,800115,2,active,NEW BALANCE WICHITA,"1720 N. WEBB ROAD, SUITE 110",,WICHITA,KS,67206,(316) 558-5702,,New Balance Store,US,,,,,,,10,10:00 AM,7:00 PM,10:00 AM,7:00 PM,10:00 AM,7:00 PM,10:00 AM,7:00 PM,10:00 AM,7:00 PM,10:00 AM,7:00 PM,12:00 PM,5:00 PM,Y,Y,Y,Y,Y,Y,Y,,,,,,,,NB_US,NB_STORES,NB_STORES,NB_DG,NB_US
12070,,N336-000_001,,,N336-000,1,active,New Balance Cranston,168 HILLSIDE RD,,CRANSTON,RI,2920,401-654-4649,,Corporate Store,US,,,,,,,10,,,,,,,,,,,,,,,Y,Y,Y,Y,Y,Y,Y,,,,,,Y,,NB_US,NB_STORES,NB_STORES,NB_DG,NB_US
12071,,N336-000_002,,,N336-000,2,active,New Balance Lexington,3535 NICHOLASVILLE ROAD,UNIT 928,LEXINGTON,KY,40503,,,Corporate Store,US,,,,,,,10,,,,,,,,,,,,,,,Y,Y,Y,Y,Y,Y,Y,,,,,,Y,,NB_US,NB_STORES,NB_STORES,NB_DG,NB_US
19250,,0801950_100801950001,,,801950,1.01E+11,active,New Balance Summerlin,2010 FESTIVAL PLAZA DRIVE \ SUITE# 110,,Las Vegas,NV,89135,,,,US,,,,,,,10,,,,,,,,,,,,,,,Y,Y,Y,Y,Y,Y,Y,,,,,,Y,,NB_US,NB_STORES,NB_STORES,NB_DG,NB_US
19271,,0801850_001,,,801850,1,active,New Balance Las Vegas,3200 LAS VEGAS BLVD. #2720,,Las Vegas,NV,89109,,,,US,,,,,,,10,,,,,,,,,,,,,,,Y,Y,Y,,,,Y,,,,,,Y,,NB_US,NB_STORES,NB_STORES,NB_DG,NB_US
19278,,9699600_057,,,9699600,57,active,New Balance Kittery,345 US Route 1,#P-028,Kittery,ME,3904,207-439-0710,,Inline,US,,,,,,,10,,,,,,,,,,,,,,,,,,,,,,,,,,,,,NB_US,NB_STORES,NB_STORES,NB_DG,NB_US
